NORAD_CAT_ID,OBJECT_NAME,OBJECT_TYPE,EPOCH,MEAN_MOTION,ECCENTRICITY,INCLINATION,RA_OF_ASC_NODE,ARG_OF_PERICENTER,MEAN_ANOMALY,BSTAR,MEAN_MOTION_DOT,MEAN_MOTION_DDOT,TLE_LINE0,TLE_LINE1,TLE_LINE2,SEMIMAJOR_AXIS,PERIOD,APOGEE,PERIGEE,DECAYED
53997.0,STARLINK-5130,PAYLOAD,2024-01-21 12:39:56,15.08850833,0.0001565,53.2163,97.6575,80.5787,279.5382,0.00048438,7.432e-05,0.0,0 STARLINK-5130,1 53997U 22125AK  24021.52773356  .00007432  00000-0  48438-3 0  9998,2 53997  53.2163  97.6575 0001565  80.5787 279.5382 15.08850833 72192,6917.847,95.437,540.795,538.63,0.0
53997.0,STARLINK-5130,PAYLOAD,2024-01-22 10:55:20,15.08848376,0.0001548,53.217,93.4943,75.6727,284.4437,0.00029134,4.353e-05,0.0,0 STARLINK-5130,1 53997U 22125AK  24022.45509449  .00004353  00000-0  29134-3 0  9992,2 53997  53.2170  93.4943 0001548  75.6727 284.4437 15.08848376 72334,6917.855,95.437,540.791,538.649,0.0
53997.0,STARLINK-5130,PAYLOAD,2024-01-23 10:46:07,15.08847701,0.0001746,53.2183,89.0305,65.9115,294.206,0.0002046,2.97e-05,0.0,0 STARLINK-5130,1 53997U 22125AK  24023.44869310  .00002970  00000-0  20460-3 0  9994,2 53997  53.2183  89.0305 0001746  65.9115 294.2060 15.08847701 72482,6917.857,95.437,540.93,538.514,0.0
53997.0,STARLINK-5130,PAYLOAD,2024-01-24 10:36:54,15.08835931,0.0001683,53.2176,84.5762,107.6902,252.4274,3.4371e-05,2.59e-06,0.0,0 STARLINK-5130,1 53997U 22125AK  24024.44229828  .00000259  00000-0  34371-4 0  9994,2 53997  53.2176  84.5762 0001683 107.6902 252.4274 15.08835931 72631,6917.893,95.438,540.922,538.594,0.0
53997.0,STARLINK-5130,PAYLOAD,2024-01-25 10:27:41,15.08842588,0.000157,53.2173,80.1141,95.8458,264.2713,6.543e-05,7.54e-06,0.0,0 STARLINK-5130,1 53997U 22125AK  24025.43589784  .00000754  00000-0  65430-4 0  9994,2 53997  53.2173  80.1141 0001570  95.8458 264.2713 15.08842588 72714,6917.872,95.437,540.824,538.651,0.0
53997.0,STARLINK-5130,PAYLOAD,2024-01-26 10:18:28,15.08845014,0.0001639,53.2175,75.6542,99.2865,260.8313,0.00020108,2.914e-05,0.0,0 STARLINK-5130,1 53997U 22125AK  24026.42949728  .00002914  00000-0  20108-3 0  9994,2 53997  53.2175  75.6542 0001639  99.2865 260.8313 15.08845014 72935,6917.865,95.437,540.864,538.596,0.0
53997.0,STARLINK-5130,PAYLOAD,2024-01-27 10:09:16,15.08824516,0.0002301,53.2169,71.1927,150.1309,209.9815,-0.00011897,-2.18e-05,0.0,0 STARLINK-5130,1 53997U 22125AK  24027.42311103 -.00002180  00000-0 -11897-3 0  9997,2 53997  53.2169  71.1927 0002301 150.1309 209.9815 15.08824516 73085,6917.928,95.439,541.385,538.201,0.0
53997.0,STARLINK-5130,PAYLOAD,2024-01-27 13:20:03,15.08822859,0.0001786,53.2185,70.5978,138.6286,221.4841,-6.0299e-05,-1.247e-05,0.0,0 STARLINK-5130,1 53997U 22125AK  24027.55560046 -.00001247  00000-0 -60299-4 0  9997,2 53997  53.2185  70.5978 0001786 138.6286 221.4841 15.08822859 73034,6917.933,95.439,541.033,538.562,0.0
53997.0,STARLINK-5130,PAYLOAD,2024-01-28 02:03:08,15.08831402,0.0001464,53.2188,68.22,87.6014,272.5146,-9.1256e-06,-4.33e-06,0.0,0 STARLINK-5130,1 53997U 22125AK  24028.08551971 -.00000433  00000-0 -91256-5 0  9997,2 53997  53.2188  68.2200 0001464  87.6014 272.5146 15.08831402 73189,6917.907,95.438,540.784,538.759,0.0
53997.0,STARLINK-5130,PAYLOAD,2024-01-28 11:35:26,15.08845784,0.0001708,53.2183,66.4325,84.9303,275.1884,8.6866e-05,1.095e-05,0.0,0 STARLINK-5130,1 53997U 22125AK  24028.48295069  .00001095  00000-0  86866-4 0  9997,2 53997  53.2183  66.4325 0001708  84.9303 275.1884 15.08845784 73247,6917.863,95.437,540.909,538.546,0.0
53997.0,STARLINK-5130,PAYLOAD,2024-01-29 09:50:50,15.08860277,0.0002017,53.2173,62.2717,69.4988,290.622,0.0007354,0.00011442,0.0,0 STARLINK-5130,1 53997U 22125AK  24029.41031157  .00011442  00000-0  73540-3 0  9998,2 53997  53.2173  62.2717 0002017  69.4988 290.6220 15.08860277 73314,6917.818,95.436,541.079,538.288,0.0
53997.0,STARLINK-5130,PAYLOAD,2024-01-30 11:17:00,15.08857031,0.0001807,53.2171,57.5115,81.8041,278.3156,0.00028776,4.297e-05,0.0,0 STARLINK-5130,1 53997U 22125AK  24030.47014306  .00004297  00000-0  28776-3 0  9994,2 53997  53.2171  57.5115 0001807  81.8041 278.3156 15.08857031 73545,6917.828,95.436,540.943,538.443,0.0
53997.0,STARLINK-5130,PAYLOAD,2024-01-31 11:07:47,15.08847943,0.0001797,53.217,53.0459,93.7886,266.3312,-6.4816e-05,-1.32e-05,0.0,0 STARLINK-5130,1 53997U 22125AK  24031.46374290 -.00001320  00000-0 -64816-4 0  9997,2 53997  53.2170  53.0459 0001797  93.7886 266.3312 15.08847943 73691,6917.856,95.437,540.964,538.478,0.0
53997.0,STARLINK-5130,PAYLOAD,2024-02-01 07:47:48,15.08838936,0.0001977,53.2179,49.1791,109.9133,250.2072,6.9781e-05,8.23e-06,0.0,0 STARLINK-5130,1 53997U 22125AK  24032.32486599  .00000823  00000-0  69781-4 0  9990,2 53997  53.2179  49.1791 0001977 109.9133 250.2072 15.08838936 73822,6917.884,95.438,541.116,538.381,0.0
53997.0,STARLINK-5130,PAYLOAD,2024-02-02 07:38:35,15.08844895,0.0001814,53.2183,44.7203,100.7097,259.4099,0.00012546,1.709e-05,0.0,0 STARLINK-5130,1 53997U 22125AK  24033.31846258  .00001709  00000-0  12546-3 0  9992,2 53997  53.2183  44.7203 0001814 100.7097 259.4099 15.08844895 73904,6917.865,95.437,540.985,538.476,0.0
53997.0,STARLINK-5130,PAYLOAD,2024-02-03 04:18:36,15.08833704,0.000199,53.2192,40.8627,111.1056,249.0149,4.3242e-05,4e-06,0.0,0 STARLINK-5130,1 53997U 22125AK  24034.17959320  .00000400  00000-0  43242-4 0  9997,2 53997  53.2192  40.8627 0001990 111.1056 249.0149 15.08833704 74108,6917.9,95.438,541.141,538.388,0.0
53997.0,STARLINK-5130,PAYLOAD,2024-02-03 05:54:00,15.08834209,0.0001985,53.2192,40.5654,111.0718,249.0487,4.543e-05,4.35e-06,0.0,0 STARLINK-5130,1 53997U 22125AK  24034.24583354  .00000435  00000-0  45430-4 0  9994,2 53997  53.2192  40.5654 0001985 111.0718 249.0487 15.08834209 74042,6917.898,95.438,541.136,538.39,0.0
53997.0,STARLINK-5130,PAYLOAD,2024-02-04 08:55:32,15.08846882,0.0001832,53.219,35.5067,99.1341,260.9859,9.843e-05,1.279e-05,0.0,0 STARLINK-5130,1 53997U 22125AK  24035.37190627  .00001279  00000-0  98430-4 0  9991,2 53997  53.2190  35.5067 0001832  99.1341 260.9859 15.08846882 74282,6917.859,95.437,540.992,538.457,0.0
53997.0,STARLINK-5130,PAYLOAD,2024-02-05 04:00:10,15.08838119,0.0001816,53.2192,31.9386,102.1646,257.955,0.00011754,1.583e-05,0.0,0 STARLINK-5130,1 53997U 22125AK  24036.16679154  .00001583  00000-0  11754-3 0  9997,2 53997  53.2192  31.9386 0001816 102.1646 257.9550 15.08838119 74405,6917.886,95.438,541.007,538.495,0.0
53997.0,STARLINK-5130,PAYLOAD,2024-02-05 07:10:57,15.08839506,0.0001769,53.2191,31.3415,81.9155,278.2038,0.00015265,2.142e-05,0.0,0 STARLINK-5130,1 53997U 22125AK  24036.29927160  .00002142  00000-0  15265-3 0  9997,2 53997  53.2191  31.3415 0001769  81.9155 278.2038 15.08839506 74359,6917.882,95.438,540.971,538.523,0.0
53997.0,STARLINK-5130,PAYLOAD,2024-02-06 08:37:06,15.0885117,0.0002058,53.2201,26.5774,73.7537,286.3682,7.5604e-05,9.16e-06,0.0,0 STARLINK-5130,1 53997U 22125AK  24037.35910612  .00000916  00000-0  75604-4 0  9990,2 53997  53.2201  26.5774 0002058  73.7537 286.3682 15.08851170 74581,6917.846,95.437,541.135,538.288,0.0
53997.0,STARLINK-5130,PAYLOAD,2024-02-07 03:41:44,15.08845555,0.0002049,53.2207,23.0057,79.149,280.9732,-1.2012e-05,-4.79e-06,0.0,0 STARLINK-5130,1 53997U 22125AK  24038.15399113 -.00000479  00000-0 -12012-4 0  9996,2 53997  53.2207  23.0057 0002049  79.1490 280.9732 15.08845555 74701,6917.863,95.437,541.146,538.311,0.0
53997.0,STARLINK-5130,PAYLOAD,2024-02-07 08:27:54,15.08841308,0.0001983,53.2208,22.1156,85.5671,274.5547,8.5698e-06,-1.52e-06,0.0,0 STARLINK-5130,1 53997U 22125AK  24038.35271260 -.00000152  00000-0  85698-5 0  9998,2 53997  53.2208  22.1156 0001983  85.5671 274.5547 15.08841308 74660,6917.876,95.437,541.113,538.37,0.0
53997.0,STARLINK-5130,PAYLOAD,2024-02-07 16:24:49,15.08849272,0.0001639,53.2192,20.634,106.1724,253.9448,0.00012673,1.73e-05,0.0,0 STARLINK-5130,1 53997U 22125AK  24038.68390151  .00001730  00000-0  12673-3 0  9998,2 53997  53.2192  20.6340 0001639 106.1724 253.9448 15.08849272 74789,6917.852,95.437,540.851,538.583,0.0
53997.0,STARLINK-5130,PAYLOAD,2024-02-08 01:57:07,15.08861743,0.0001487,53.2185,18.8509,108.0785,252.0369,9.6379e-05,1.247e-05,0.0,0 STARLINK-5130,1 53997U 22125AK  24039.08133256  .00001247  00000-0  96379-4 0  9993,2 53997  53.2185  18.8509 0001487 108.0785 252.0369 15.08861743 74842,6917.814,95.436,540.708,538.65,0.0
53997.0,STARLINK-5130,PAYLOAD,2024-02-08 08:18:39,15.08869044,0.0001657,53.2182,17.6621,98.6172,261.5008,0.00034548,5.219e-05,0.0,0 STARLINK-5130,1 53997U 22125AK  24039.34629061  .00005219  00000-0  34548-3 0  9998,2 53997  53.2182  17.6621 0001657  98.6172 261.5008 15.08869044 74818,6917.792,95.436,540.803,538.51,0.0
53997.0,STARLINK-5130,PAYLOAD,2024-02-08 22:37:09,15.08834079,0.0001576,53.2185,14.9861,86.9259,273.1914,-0.00010189,-1.909e-05,0.0,0 STARLINK-5130,1 53997U 22125AK  24039.94246983 -.00001909  00000-0 -10189-3 0  9991,2 53997  53.2185  14.9861 0001576  86.9259 273.1914 15.08834079 74908,6917.898,95.438,540.854,538.673,0.0
53997.0,STARLINK-5130,PAYLOAD,2024-02-09 03:23:18,15.08832265,0.0001566,53.2187,14.0947,94.42,265.6971,-0.00017946,-3.142e-05,0.0,0 STARLINK-5130,1 53997U 22125AK  24040.14118878 -.00003142  00000-0 -17946-3 0  9995,2 53997  53.2187  14.0947 0001566  94.4200 265.6971 15.08832265 75001,6917.904,95.438,540.852,538.686,0.0
53997.0,STARLINK-5130,PAYLOAD,2024-02-09 04:58:41,15.08833027,0.0001623,53.2186,13.7973,97.1442,262.9735,-0.0001494,-2.664e-05,0.0,0 STARLINK-5130,1 53997U 22125AK  24040.20742887 -.00002664  00000-0 -14940-3 0  9994,2 53997  53.2186  13.7973 0001623  97.1442 262.9735 15.08833027 74944,6917.902,95.438,540.889,538.644,0.0
53997.0,STARLINK-5130,PAYLOAD,2024-02-10 08:00:15,15.08847561,0.0001644,53.218,8.7416,83.7694,276.3485,0.00084387,0.0001317,0.0,0 STARLINK-5130,1 53997U 22125AK  24041.33351533  .00013170  00000-0  84387-3 0  9997,2 53997  53.2180   8.7416 0001644  83.7694 276.3485 15.08847561 75183,6917.857,95.437,540.86,538.585,0.0
